STARLINK-37833          
1 69332U 26122D   26170.91668981 -.02200625  00000+0 -23034-1 0  9991
2 69332  97.2854 200.5107 0001642  64.0808  97.5222 15.67877880  3742
STARLINK-37818          
1 69333U 26122E   26170.91668981 -.02514916  00000+0 -26381-1 0  9991
2 69333  97.2855 200.5016 0001885  76.2255  59.2155 15.67715218  3794
STARLINK-37868          
1 69334U 26122F   26170.91668981 -.00900115  00000+0 -82387-2 0  9999
2 69334  97.2854 200.5303 0001468  80.8808 126.9172 15.70351514  3795
STARLINK-37877          
1 69335U 26122G   26170.91668981 -.01801524  00000+0 -25096-1 0  9998
2 69335  97.2851 200.4743 0001551  57.7647  12.2461 15.59979857  3798
STARLINK-37791          
1 69336U 26122H   26170.91668981 -.02502111  00000+0 -26282-1 0  9998
2 69336  97.2853 200.5212 0002004  79.8027 107.0486 15.67662153  3791
STARLINK-37765          
1 69337U 26122J   26170.87056384 -.00622548  00000+0 -35729-2 0  9994
2 69337  97.2831 200.5042 0000774 106.9471 253.1882 15.80288774  2583
STARLINK-37788          
1 69338U 26122K   26170.91668981 -.02371765  00000+0 -38278-1 0  9997
2 69338  97.2856 200.4744 0001486  66.5031   7.9971 15.56482206  3790
STARLINK-37743          
1 69339U 26122L   26170.91668981 -.02337660  00000+0 -25997-1 0  9998
2 69339  97.2853 200.5152 0001792  93.3373  82.6516 15.66024917  3796
STARLINK-37780          
1 69340U 26122M   26170.91668981 -.02204222  00000+0 -19933-1 0  9990
2 69340  97.2854 200.5354 0001613  90.2565 128.1632 15.71392359  3849
STARLINK-37781          
1 69341U 26122N   26170.91668981 -.00689129  00000+0 -10266-1 0  9992
2 69341  97.2854 200.4685 0001576  69.4437 350.0738 15.57371115  3798
STARLINK-37782          
1 69342U 26122P   26170.91668981 -.02424220  00000+0 -19583-1 0  9995
2 69342  97.2847 200.5661 0001587  78.4503 212.2485 15.74380432  3791
STARLINK-37776          
1 69343U 26122Q   26170.91668981 -.02436623  00000+0 -21294-1 0  9998
2 69343  97.2846 200.5660 0001574  81.2972 207.5023 15.72581378  3793
STARLINK-37786          
1 69344U 26122R   26170.91668981 -.02480823  00000+0 -29840-1 0  9995
2 69344  97.2853 200.5353 0001739  93.2858 125.7079 15.64277359  3794
STARLINK-37785          
1 69345U 26122S   26170.91668981 -.02394891  00000+0 -20493-1 0  9990
2 69345  97.2845 200.5691 0001662  81.9964 214.3239 15.73001167  3793
STARLINK-37773          
1 69346U 26122T   26170.91668981 -.02350586  00000+0 -25309-1 0  9995
2 69346  97.2848 200.5553 0001300  63.6815 193.9465 15.66847784  3849
STARLINK-37744          
1 69347U 26122U   26170.91668981 -.02413714  00000+0 -41355-1 0  9998
2 69347  97.2855 200.4904 0001526  66.3526  39.4816 15.54940134  3794
STARLINK-37775          
1 69348U 26122V   26170.91668981 -.02558049  00000+0 -26920-1 0  9991
2 69348  97.2846 200.5537 0001567  90.3626 172.5775 15.67702845  3793
STARLINK-37777          
1 69349U 26122W   26170.91668981 -.02245557  00000+0 -23602-1 0  9993
2 69349  97.2847 200.5543 0001655  85.0736 179.2295 15.67854126  3794
STARLINK-37779          
1 69350U 26122X   26170.91668981 -.02405522  00000+0 -22404-1 0  9994
2 69350  97.2842 200.5668 0001354  73.6570 219.3641 15.71036901  3793
STARLINK-37549          
1 69351U 26122Y   26170.91668981 -.02468493  00000+0 -33366-1 0  9990
2 69351  97.2851 200.5228 0001752  64.0467 117.9204 15.61289099  3792
STARLINK-37778          
1 69352U 26122Z   26170.91668981 -.02502275  00000+0 -31878-1 0  9994
2 69352  97.2854 200.5385 0001704  86.9023 140.6378 15.62857413  3795
STARLINK-37651          
1 69353U 26123A   26170.63767009  .00151919  00000+0  75744-3 0  9999
2 69353  53.1573 229.5262 0001826  72.5901 287.5321 15.80938939  2422
STARLINK-37652          
1 69354U 26123B   26170.63880978  .00164498  00000+0  81885-3 0  9990
2 69354  53.1573 229.5350 0000832  80.1677 279.9439 15.80934634  2425
STARLINK-37593          
1 69355U 26123C   26170.63793801  .00199704  00000+0  98818-3 0  9991
2 69355  53.1574 229.5280 0001357  70.4474 289.6695 15.80959224  2423
STARLINK-37597          
1 69356U 26123D   26170.63630718  .00158615  00000+0  78969-3 0  9990
2 69356  53.1574 229.5168 0001019  74.2308 285.8827 15.80949863  2425
STARLINK-37598          
1 69357U 26123E   26170.88709117  .00301223  00000+0  14704-2 0  9999
2 69357  53.1573 228.2349 0001714  67.6746 292.4458 15.80971354  2464
STARLINK-37602          
1 69358U 26123F   26170.64873811  .00161962  00000+0  10381-2 0  9998
2 69358  53.1587 229.5994 0001085  83.8995 276.2149 15.75294437  2424
STARLINK-37600          
1 69359U 26123G   26170.91668981 -.00018980  00000+0 -12000-3 0  9993
2 69359  53.1587 228.2186 0001089  91.5180  12.9120 15.75223373  3640
STARLINK-37599          
1 69360U 26123H   26170.62383606  .00188728  00000+0  93513-3 0  9995
2 69360  53.1565 229.4322 0000924  86.8082 273.3046 15.80961979  2420
STARLINK-37039          
1 69361U 26123J   26170.62876525  .00136535  00000+0  68242-3 0  9993
2 69361  53.1573 229.4648 0001560  68.7964 291.3225 15.80935712  2421
