OBJECT_NAME,OBJECT_ID,EPOCH,MEAN_MOTION,ECCENTRICITY,INCLINATION,RA_OF_ASC_NODE,ARG_OF_PERICENTER,MEAN_ANOMALY,EPHEMERIS_TYPE,CLASSIFICATION_TYPE,NORAD_CAT_ID,ELEMENT_SET_NO,REV_AT_EPOCH,BSTAR,MEAN_MOTION_DOT,MEAN_MOTION_DDOT
STARLINK-37833,2026-122D,2026-06-19T22:00:01.999584,15.67877880,.00016429,97.2854,200.5107,64.0808,97.5222,0,U,69332,999,374,-.23034274E-1,-.2200625E-1,0
STARLINK-37818,2026-122E,2026-06-19T22:00:01.999584,15.67715218,.00018859,97.2855,200.5016,76.2255,59.2155,0,U,69333,999,379,-.26380817E-1,-.2514916E-1,0
STARLINK-37868,2026-122F,2026-06-19T22:00:01.999584,15.70351514,.00014685,97.2854,200.5303,80.8808,126.9172,0,U,69334,999,379,-.82386656E-2,-.900115E-2,0
STARLINK-37877,2026-122G,2026-06-19T22:00:01.999584,15.59979857,.0001551,97.2851,200.4743,57.7647,12.2461,0,U,69335,999,379,-.25095754E-1,-.1801524E-1,0
STARLINK-37791,2026-122H,2026-06-19T22:00:01.999584,15.67662153,.00020044,97.2853,200.5212,79.8027,107.0486,0,U,69336,999,379,-.26282224E-1,-.2502111E-1,0
STARLINK-37765,2026-122J,2026-06-19T20:53:36.715776,15.80288774,.0000774,97.2831,200.5042,106.9471,253.1882,0,U,69337,999,258,-.35729286E-2,-.622548E-2,0
STARLINK-37788,2026-122K,2026-06-19T22:00:01.999584,15.56482206,.00014865,97.2856,200.4744,66.5031,7.9971,0,U,69338,999,379,-.38277685E-1,-.2371765E-1,0
STARLINK-37743,2026-122L,2026-06-19T22:00:01.999584,15.66024917,.00017924,97.2853,200.5152,93.3373,82.6516,0,U,69339,999,379,-.25997341E-1,-.233766E-1,0
STARLINK-37780,2026-122M,2026-06-19T22:00:01.999584,15.71392359,.00016135,97.2854,200.5354,90.2565,128.1632,0,U,69340,999,384,-.19932976E-1,-.2204222E-1,0
STARLINK-37781,2026-122N,2026-06-19T22:00:01.999584,15.57371115,.00015761,97.2854,200.4685,69.4437,350.0738,0,U,69341,999,379,-.1026596E-1,-.689129E-2,0
STARLINK-37782,2026-122P,2026-06-19T22:00:01.999584,15.74380432,.00015877,97.2847,200.5661,78.4503,212.2485,0,U,69342,999,379,-.19582765E-1,-.242422E-1,0
STARLINK-37776,2026-122Q,2026-06-19T22:00:01.999584,15.72581378,.00015745,97.2846,200.5660,81.2972,207.5023,0,U,69343,999,379,-.21294499E-1,-.2436623E-1,0
STARLINK-37786,2026-122R,2026-06-19T22:00:01.999584,15.64277359,.00017392,97.2853,200.5353,93.2858,125.7079,0,U,69344,999,379,-.29839618E-1,-.2480823E-1,0
STARLINK-37785,2026-122S,2026-06-19T22:00:01.999584,15.73001167,.00016621,97.2845,200.5691,81.9964,214.3239,0,U,69345,999,379,-.20492601E-1,-.2394891E-1,0
STARLINK-37773,2026-122T,2026-06-19T22:00:01.999584,15.66847784,.00013008,97.2848,200.5553,63.6815,193.9465,0,U,69346,999,384,-.25309167E-1,-.2350586E-1,0
STARLINK-37744,2026-122U,2026-06-19T22:00:01.999584,15.54940134,.00015269,97.2855,200.4904,66.3526,39.4816,0,U,69347,999,379,-.41354998E-1,-.2413714E-1,0
STARLINK-37775,2026-122V,2026-06-19T22:00:01.999584,15.67702845,.00015671,97.2846,200.5537,90.3626,172.5775,0,U,69348,999,379,-.26919824E-1,-.2558049E-1,0
STARLINK-37777,2026-122W,2026-06-19T22:00:01.999584,15.67854126,.00016551,97.2847,200.5543,85.0736,179.2295,0,U,69349,999,379,-.23602163E-1,-.2245557E-1,0
STARLINK-37779,2026-122X,2026-06-19T22:00:01.999584,15.71036901,.00013542,97.2842,200.5668,73.6570,219.3641,0,U,69350,999,379,-.22403885E-1,-.2405522E-1,0
STARLINK-37549,2026-122Y,2026-06-19T22:00:01.999584,15.61289099,.00017525,97.2851,200.5228,64.0467,117.9204,0,U,69351,999,379,-.33366164E-1,-.2468493E-1,0
STARLINK-37778,2026-122Z,2026-06-19T22:00:01.999584,15.62857413,.00017041,97.2854,200.5385,86.9023,140.6378,0,U,69352,999,379,-.31877884E-1,-.2502275E-1,0
STARLINK-37651,2026-123A,2026-06-19T15:18:14.695776,15.80938939,.0001826,53.1573,229.5262,72.5901,287.5321,0,U,69353,999,242,.75744204E-3,.151919E-2,0
STARLINK-37652,2026-123B,2026-06-19T15:19:53.164992,15.80934634,.0000832,53.1573,229.5350,80.1677,279.9439,0,U,69354,999,242,.81885395E-3,.164498E-2,0
STARLINK-37593,2026-123C,2026-06-19T15:18:37.844064,15.80959224,.00013579,53.1574,229.5280,70.4474,289.6695,0,U,69355,999,242,.9881798E-3,.199704E-2,0
STARLINK-37597,2026-123D,2026-06-19T15:16:16.940352,15.80949863,.00010192,53.1574,229.5168,74.2308,285.8827,0,U,69356,999,242,.78968573E-3,.158615E-2,0
STARLINK-37598,2026-123E,2026-06-19T21:17:24.677088,15.80971354,.00017147,53.1573,228.2349,67.6746,292.4458,0,U,69357,999,246,.14703949E-2,.301223E-2,0
STARLINK-37602,2026-123F,2026-06-19T15:34:10.972704,15.75294437,.00010852,53.1587,229.5994,83.8995,276.2149,0,U,69358,999,242,.1038098E-2,.161962E-2,0
STARLINK-37600,2026-123G,2026-06-19T22:00:01.999584,15.75223373,.00010894,53.1587,228.2186,91.5180,12.9120,0,U,69359,999,364,-.12000332E-3,-.1898E-3,0
STARLINK-37599,2026-123H,2026-06-19T14:58:19.435584,15.80961979,.00009243,53.1565,229.4322,86.8082,273.3046,0,U,69360,999,242,.93513293E-3,.188728E-2,0
STARLINK-37039,2026-123J,2026-06-19T15:05:25.317600,15.80935712,.00015607,53.1573,229.4648,68.7964,291.3225,0,U,69361,999,242,.6824227E-3,.136535E-2,0
